{
    "sweeps": [
        {
            "name": "Planet Nine",
            "mass": 1.7494688500000002e-05,
            "semi_major_axis": 568.975,
            "inclination": 0.22427480888127133,
            "eccentricity": 0.35,
            "argument_of_perihelion": 2.6851890541932755,
            "longitude_of_ascending_node": 1.6353735091186867,
            "mean_anomaly": 0
        },
        {
            "name": "Planet Nine",
            "mass": 2.2225012000000004e-05,
            "semi_major_axis": 604.2375,
            "inclination": 0.20114919629234645,
            "eccentricity": 0.3,
            "argument_of_perihelion": 2.7133324883816843,
            "longitude_of_ascending_node": 1.4206980111233842,
            "mean_anomaly": 0
        },
        {
            "name": "Planet Nine",
            "mass": 2.0648237500000003e-05,
            "semi_major_axis": 463.1875,
            "inclination": 0.27052603405912107,
            "eccentricity": 0.25,
            "argument_of_perihelion": 2.7661286982545126,
            "longitude_of_ascending_node": 1.4922565104551517,
            "mean_anomaly": 0
        },
        {
            "name": "Planet Nine",
            "mass": 2.6955335500000003e-05,
            "semi_major_axis": 427.92499999999995,
            "inclination": 0.3399028718258957,
            "eccentricity": 0.19999999999999998,
            "argument_of_perihelion": 2.3461588469933767,
            "longitude_of_ascending_node": 1.8500490071139895,
            "mean_anomaly": 0
        },
        {
            "name": "Planet Nine",
            "mass": 1.5917914e-05,
            "semi_major_axis": 392.66249999999997,
            "inclination": 0.29365164664804594,
            "eccentricity": 0.325,
            "argument_of_perihelion": 2.6042494101320384,
            "longitude_of_ascending_node": 1.7784905077822217,
            "mean_anomaly": 0
        },
        {
            "name": "Planet Nine",
            "mass": 2.5378561000000005e-05,
            "semi_major_axis": 357.4,
            "inclination": 0.2474004214701962,
            "eccentricity": 0.22499999999999998,
            "argument_of_perihelion": 2.8811022627296388,
            "longitude_of_ascending_node": 1.5638150097869192,
            "mean_anomaly": 0
        },
        {
            "name": "Planet Nine",
            "mass": 1.9071463e-05,
            "semi_major_axis": 533.7125,
            "inclination": 0.3167772592369708,
            "eccentricity": 0.375,
            "argument_of_perihelion": 2.5854871206730987,
            "longitude_of_ascending_node": 1.921607506445757,
            "mean_anomaly": 0
        },
        {
            "name": "Planet Nine",
            "mass": 2.3801786500000003e-05,
            "semi_major_axis": 498.45,
            "inclination": 0.17802358370342158,
            "eccentricity": 0.275,
            "argument_of_perihelion": 2.3649211364523164,
            "longitude_of_ascending_node": 1.7069320084504542,
            "mean_anomaly": 0
        }
    ],
    "bodies": [
        {
            "name": "TNO-948",
            "mass": 0,
            "semi_major_axis": 182.4181729360039,
            "eccentricity": 0.8092623351245726,
            "inclination": 0.040414561086727516,
            "longitude_of_ascending_node": 4.185986418410292,
            "argument_of_perihelion": 1.6477897683803617,
            "mean_anomaly": 5.12170905088442
        },
        {
            "name": "TNO-949",
            "mass": 0,
            "semi_major_axis": 182.4523693209575,
            "eccentricity": 0.8092721055202736,
            "inclination": 0.04045719248027891,
            "longitude_of_ascending_node": 5.914007386456862,
            "argument_of_perihelion": 1.561885937204259,
            "mean_anomaly": 6.094257060947522
        },
        {
            "name": "TNO-950",
            "mass": 0,
            "semi_major_axis": 182.4865657059111,
            "eccentricity": 0.8092818759159747,
            "inclination": 0.04049982387383031,
            "longitude_of_ascending_node": 0.29758836247820336,
            "argument_of_perihelion": 3.772134984130577,
            "mean_anomaly": 5.352837801039242
        },
        {
            "name": "TNO-951",
            "mass": 0,
            "semi_major_axis": 182.52076209086468,
            "eccentricity": 0.8092916463116757,
            "inclination": 0.04054245526738171,
            "longitude_of_ascending_node": 5.604404907667189,
            "argument_of_perihelion": 2.9790527348243687,
            "mean_anomaly": 0.7942476383190218
        },
        {
            "name": "TNO-952",
            "mass": 0,
            "semi_major_axis": 182.55495847581827,
            "eccentricity": 0.8093014167073767,
            "inclination": 0.04058508666093311,
            "longitude_of_ascending_node": 5.875258850956905,
            "argument_of_perihelion": 4.543637620878843,
            "mean_anomaly": 1.1996042971276566
        },
        {
            "name": "TNO-953",
            "mass": 0,
            "semi_major_axis": 182.58915486077186,
            "eccentricity": 0.8093111871030777,
            "inclination": 0.040627718054484514,
            "longitude_of_ascending_node": 5.60059607356959,
            "argument_of_perihelion": 2.4732028817006704,
            "mean_anomaly": 2.689160780900783
        },
        {
            "name": "TNO-954",
            "mass": 0,
            "semi_major_axis": 182.62335124572544,
            "eccentricity": 0.8093209574987787,
            "inclination": 0.040670349448035915,
            "longitude_of_ascending_node": 6.023256713139276,
            "argument_of_perihelion": 0.7376937852767311,
            "mean_anomaly": 0.13454918761635334
        },
        {
            "name": "TNO-955",
            "mass": 0,
            "semi_major_axis": 182.65754763067903,
            "eccentricity": 0.8093307278944798,
            "inclination": 0.040712980841587317,
            "longitude_of_ascending_node": 4.087984025232801,
            "argument_of_perihelion": 2.652435630755994,
            "mean_anomaly": 4.629168779247719
        },
        {
            "name": "TNO-956",
            "mass": 0,
            "semi_major_axis": 182.69174401563262,
            "eccentricity": 0.8093404982901808,
            "inclination": 0.04075561223513872,
            "longitude_of_ascending_node": 1.5929190330870662,
            "argument_of_perihelion": 4.253474151387724,
            "mean_anomaly": 0.4063017410860175
        },
        {
            "name": "TNO-957",
            "mass": 0,
            "semi_major_axis": 182.72594040058624,
            "eccentricity": 0.8093502686858818,
            "inclination": 0.04079824362869012,
            "longitude_of_ascending_node": 2.9292319634036152,
            "argument_of_perihelion": 4.41721504433303,
            "mean_anomaly": 1.1726100021963837
        },
        {
            "name": "TNO-958",
            "mass": 0,
            "semi_major_axis": 182.76013678553983,
            "eccentricity": 0.8093600390815828,
            "inclination": 0.04084087502224151,
            "longitude_of_ascending_node": 5.757321411325928,
            "argument_of_perihelion": 2.26757323837465,
            "mean_anomaly": 5.000080447893075
        },
        {
            "name": "TNO-959",
            "mass": 0,
            "semi_major_axis": 182.79433317049342,
            "eccentricity": 0.8093698094772839,
            "inclination": 0.040883506415792914,
            "longitude_of_ascending_node": 5.30380775924698,
            "argument_of_perihelion": 2.664594716245492,
            "mean_anomaly": 1.841759490217376
        },
        {
            "name": "TNO-960",
            "mass": 0,
            "semi_major_axis": 182.828529555447,
            "eccentricity": 0.8093795798729849,
            "inclination": 0.040926137809344315,
            "longitude_of_ascending_node": 2.957088320275308,
            "argument_of_perihelion": 1.488369275862405,
            "mean_anomaly": 5.145928396551261
        },
        {
            "name": "TNO-961",
            "mass": 0,
            "semi_major_axis": 182.8627259404006,
            "eccentricity": 0.809389350268686,
            "inclination": 0.040968769202895716,
            "longitude_of_ascending_node": 5.612031330910632,
            "argument_of_perihelion": 2.469646634092078,
            "mean_anomaly": 3.705175292332654
        },
        {
            "name": "TNO-962",
            "mass": 0,
            "semi_major_axis": 182.89692232535418,
            "eccentricity": 0.8093991206643869,
            "inclination": 0.04101140059644712,
            "longitude_of_ascending_node": 0.8428928840359529,
            "argument_of_perihelion": 0.6221661009517907,
            "mean_anomaly": 1.5879506319622367
        },
        {
            "name": "TNO-963",
            "mass": 0,
            "semi_major_axis": 182.93111871030777,
            "eccentricity": 0.809408891060088,
            "inclination": 0.04105403198999852,
            "longitude_of_ascending_node": 5.879174679543674,
            "argument_of_perihelion": 0.8752461567874886,
            "mean_anomaly": 3.820045230579752
        },
        {
            "name": "TNO-964",
            "mass": 0,
            "semi_major_axis": 182.96531509526136,
            "eccentricity": 0.809418661455789,
            "inclination": 0.04109666338354992,
            "longitude_of_ascending_node": 3.550872340151719,
            "argument_of_perihelion": 1.1029090634711427,
            "mean_anomaly": 3.5140729700017235
        }
    ]
}